STARLINK-36995          
1 68143U 26049B   26092.83335647 -.00151711  00000+0 -10324-2 0  9990
2 68143  97.2854 113.2977 0001207  98.1450 154.4307 15.75234661  4509
STARLINK-37020          
1 68144U 26049C   26092.52824357  .00351660  00000+0  17531-2 0  9998
2 68144  97.2839 112.9917 0001201  74.8719 285.2682 15.80946615  3172
STARLINK-36244          
1 68145U 26049D   26092.80257616  .00168976  00000+0  11080-2 0  9997
2 68145  97.2852 113.2296 0001460  68.4522 291.6899 15.75263375  3215
STARLINK-36980          
1 68146U 26049E   26092.84399111  .00177977  00000+0  90682-3 0  9996
2 68146  97.2848 113.3277 0001420  54.8673 305.2728 15.80918483  3220
STARLINK-37055          
1 68147U 26049F   26092.78219957  .00333630  00000+0  16670-2 0  9993
2 68147  97.2845 113.2580 0001410  89.6371 270.5059 15.80943980  3214
STARLINK-36981          
1 68148U 26049G   26092.84248876  .00141013  00000+0  72215-3 0  9993
2 68148  97.2849 113.3292 0001265  90.5963 269.5450 15.80905019  3221
STARLINK-36992          
1 68149U 26049H   26092.84173620  .00185019  00000+0  94174-3 0  9990
2 68149  97.2847 113.3305 0001285  83.8167 276.3247 15.80922560  3228
STARLINK-37060          
1 68150U 26049J   26092.84098851  .00262686  00000+0  13243-2 0  9997
2 68150  97.2849 113.3313 0001146  90.1429 269.9971 15.80931517  3223
STARLINK-37073          
1 68151U 26049K   26092.83335647 -.00139756  00000+0 -95006-3 0  9995
2 68151  97.2854 113.3110 0001466  84.4620 200.1090 15.75224298  4505
STARLINK-37049          
1 68152U 26049L   26092.83971443 -.00887946  00000+0 -54501-2 0  9991
2 68152  97.2841 113.3330 0000849 112.6560 247.4797 15.79489207  3220
STARLINK-37072          
1 68153U 26049M   26092.83335647 -.00151313  00000+0 -10299-2 0  9990
2 68153  97.2855 113.3030 0001371  92.3993 172.1724 15.75227530  4509
STARLINK-36241          
1 68154U 26049N   26092.79869515  .00183194  00000+0  11990-2 0  9991
2 68154  97.2850 113.2349 0001568  91.6863 268.4582 15.75265342  3214
