CCSDS_OMM_VERS = 2.0
CREATION_DATE  = 
ORIGINATOR     = 

OBJECT_NAME    = STARLINK-36995
OBJECT_ID      = 2026-049B
CENTER_NAME    = EARTH
REF_FRAME      = TEME
TIME_SYSTEM    = UTC
MEAN_ELEMENT_THEORY = SGP/SGP4

EPOCH          = 2026-04-02T20:00:01.999008
MEAN_MOTION    = 15.75234661
ECCENTRICITY   = .0001207
INCLINATION    = 97.2854
RA_OF_ASC_NODE = 113.2977
ARG_OF_PERICENTER = 98.1450
MEAN_ANOMALY   = 154.4307

EPHEMERIS_TYPE = 0
CLASSIFICATION_TYPE = U
NORAD_CAT_ID   = 68143
ELEMENT_SET_NO = 999
REV_AT_EPOCH   = 450
BSTAR          = -.10324E-2
MEAN_MOTION_DOT = -.151711E-2
MEAN_MOTION_DDOT = 0

CCSDS_OMM_VERS = 2.0
CREATION_DATE  = 
ORIGINATOR     = 

OBJECT_NAME    = STARLINK-37020
OBJECT_ID      = 2026-049C
CENTER_NAME    = EARTH
REF_FRAME      = TEME
TIME_SYSTEM    = UTC
MEAN_ELEMENT_THEORY = SGP/SGP4

EPOCH          = 2026-04-02T12:40:40.244448
MEAN_MOTION    = 15.80946615
ECCENTRICITY   = .00012012
INCLINATION    = 97.2839
RA_OF_ASC_NODE = 112.9917
ARG_OF_PERICENTER = 74.8719
MEAN_ANOMALY   = 285.2682

EPHEMERIS_TYPE = 0
CLASSIFICATION_TYPE = U
NORAD_CAT_ID   = 68144
ELEMENT_SET_NO = 999
REV_AT_EPOCH   = 317
BSTAR          = .17531453E-2
MEAN_MOTION_DOT = .35166E-2
MEAN_MOTION_DDOT = 0

CCSDS_OMM_VERS = 2.0
CREATION_DATE  = 
ORIGINATOR     = 

OBJECT_NAME    = STARLINK-36244
OBJECT_ID      = 2026-049D
CENTER_NAME    = EARTH
REF_FRAME      = TEME
TIME_SYSTEM    = UTC
MEAN_ELEMENT_THEORY = SGP/SGP4

EPOCH          = 2026-04-02T19:15:42.580224
MEAN_MOTION    = 15.75263375
ECCENTRICITY   = .000146
INCLINATION    = 97.2852
RA_OF_ASC_NODE = 113.2296
ARG_OF_PERICENTER = 68.4522
MEAN_ANOMALY   = 291.6899

EPHEMERIS_TYPE = 0
CLASSIFICATION_TYPE = U
NORAD_CAT_ID   = 68145
ELEMENT_SET_NO = 999
REV_AT_EPOCH   = 321
BSTAR          = .1108E-2
MEAN_MOTION_DOT = .168976E-2
MEAN_MOTION_DDOT = 0

CCSDS_OMM_VERS = 2.0
CREATION_DATE  = 
ORIGINATOR     = 

OBJECT_NAME    = STARLINK-36980
OBJECT_ID      = 2026-049E
CENTER_NAME    = EARTH
REF_FRAME      = TEME
TIME_SYSTEM    = UTC
MEAN_ELEMENT_THEORY = SGP/SGP4

EPOCH          = 2026-04-02T20:15:20.831904
MEAN_MOTION    = 15.80918483
ECCENTRICITY   = .000142
INCLINATION    = 97.2848
RA_OF_ASC_NODE = 113.3277
ARG_OF_PERICENTER = 54.8673
MEAN_ANOMALY   = 305.2728

EPHEMERIS_TYPE = 0
CLASSIFICATION_TYPE = U
NORAD_CAT_ID   = 68146
ELEMENT_SET_NO = 999
REV_AT_EPOCH   = 322
BSTAR          = .90682E-3
MEAN_MOTION_DOT = .177977E-2
MEAN_MOTION_DDOT = 0

CCSDS_OMM_VERS = 2.0
CREATION_DATE  = 
ORIGINATOR     = 

OBJECT_NAME    = STARLINK-37055
OBJECT_ID      = 2026-049F
CENTER_NAME    = EARTH
REF_FRAME      = TEME
TIME_SYSTEM    = UTC
MEAN_ELEMENT_THEORY = SGP/SGP4

EPOCH          = 2026-04-02T18:46:22.042848
MEAN_MOTION    = 15.80943980
ECCENTRICITY   = .000141
INCLINATION    = 97.2845
RA_OF_ASC_NODE = 113.2580
ARG_OF_PERICENTER = 89.6371
MEAN_ANOMALY   = 270.5059

EPHEMERIS_TYPE = 0
CLASSIFICATION_TYPE = U
NORAD_CAT_ID   = 68147
ELEMENT_SET_NO = 999
REV_AT_EPOCH   = 321
BSTAR          = .1667E-2
MEAN_MOTION_DOT = .33363E-2
MEAN_MOTION_DDOT = 0

CCSDS_OMM_VERS = 2.0
CREATION_DATE  = 
ORIGINATOR     = 

OBJECT_NAME    = STARLINK-36981
OBJECT_ID      = 2026-049G
CENTER_NAME    = EARTH
REF_FRAME      = TEME
TIME_SYSTEM    = UTC
MEAN_ELEMENT_THEORY = SGP/SGP4

EPOCH          = 2026-04-02T20:13:11.028864
MEAN_MOTION    = 15.80905019
ECCENTRICITY   = .0001265
INCLINATION    = 97.2849
RA_OF_ASC_NODE = 113.3292
ARG_OF_PERICENTER = 90.5963
MEAN_ANOMALY   = 269.5450

EPHEMERIS_TYPE = 0
CLASSIFICATION_TYPE = U
NORAD_CAT_ID   = 68148
ELEMENT_SET_NO = 999
REV_AT_EPOCH   = 322
BSTAR          = .72215E-3
MEAN_MOTION_DOT = .141013E-2
MEAN_MOTION_DDOT = 0

CCSDS_OMM_VERS = 2.0
CREATION_DATE  = 
ORIGINATOR     = 

OBJECT_NAME    = STARLINK-36992
OBJECT_ID      = 2026-049H
CENTER_NAME    = EARTH
REF_FRAME      = TEME
TIME_SYSTEM    = UTC
MEAN_ELEMENT_THEORY = SGP/SGP4

EPOCH          = 2026-04-02T20:12:06.007680
MEAN_MOTION    = 15.80922560
ECCENTRICITY   = .0001285
INCLINATION    = 97.2847
RA_OF_ASC_NODE = 113.3305
ARG_OF_PERICENTER = 83.8167
MEAN_ANOMALY   = 276.3247

EPHEMERIS_TYPE = 0
CLASSIFICATION_TYPE = U
NORAD_CAT_ID   = 68149
ELEMENT_SET_NO = 999
REV_AT_EPOCH   = 322
BSTAR          = .94174E-3
MEAN_MOTION_DOT = .185019E-2
MEAN_MOTION_DDOT = 0

CCSDS_OMM_VERS = 2.0
CREATION_DATE  = 
ORIGINATOR     = 

OBJECT_NAME    = STARLINK-37060
OBJECT_ID      = 2026-049J
CENTER_NAME    = EARTH
REF_FRAME      = TEME
TIME_SYSTEM    = UTC
MEAN_ELEMENT_THEORY = SGP/SGP4

EPOCH          = 2026-04-02T20:11:01.407264
MEAN_MOTION    = 15.80931517
ECCENTRICITY   = .0001146
INCLINATION    = 97.2849
RA_OF_ASC_NODE = 113.3313
ARG_OF_PERICENTER = 90.1429
MEAN_ANOMALY   = 269.9971

EPHEMERIS_TYPE = 0
CLASSIFICATION_TYPE = U
NORAD_CAT_ID   = 68150
ELEMENT_SET_NO = 999
REV_AT_EPOCH   = 322
BSTAR          = .13243E-2
MEAN_MOTION_DOT = .262686E-2
MEAN_MOTION_DDOT = 0

CCSDS_OMM_VERS = 2.0
CREATION_DATE  = 
ORIGINATOR     = 

OBJECT_NAME    = STARLINK-37073
OBJECT_ID      = 2026-049K
CENTER_NAME    = EARTH
REF_FRAME      = TEME
TIME_SYSTEM    = UTC
MEAN_ELEMENT_THEORY = SGP/SGP4

EPOCH          = 2026-04-02T20:00:01.999008
MEAN_MOTION    = 15.75224298
ECCENTRICITY   = .0001466
INCLINATION    = 97.2854
RA_OF_ASC_NODE = 113.3110
ARG_OF_PERICENTER = 84.4620
MEAN_ANOMALY   = 200.1090

EPHEMERIS_TYPE = 0
CLASSIFICATION_TYPE = U
NORAD_CAT_ID   = 68151
ELEMENT_SET_NO = 999
REV_AT_EPOCH   = 450
BSTAR          = -.95006E-3
MEAN_MOTION_DOT = -.139756E-2
MEAN_MOTION_DDOT = 0

CCSDS_OMM_VERS = 2.0
CREATION_DATE  = 
ORIGINATOR     = 

OBJECT_NAME    = STARLINK-37049
OBJECT_ID      = 2026-049L
CENTER_NAME    = EARTH
REF_FRAME      = TEME
TIME_SYSTEM    = UTC
MEAN_ELEMENT_THEORY = SGP/SGP4

EPOCH          = 2026-04-02T20:09:11.326752
MEAN_MOTION    = 15.79489207
ECCENTRICITY   = .0000849
INCLINATION    = 97.2841
RA_OF_ASC_NODE = 113.3330
ARG_OF_PERICENTER = 112.6560
MEAN_ANOMALY   = 247.4797

EPHEMERIS_TYPE = 0
CLASSIFICATION_TYPE = U
NORAD_CAT_ID   = 68152
ELEMENT_SET_NO = 999
REV_AT_EPOCH   = 322
BSTAR          = -.54501E-2
MEAN_MOTION_DOT = -.887946E-2
MEAN_MOTION_DDOT = 0

CCSDS_OMM_VERS = 2.0
CREATION_DATE  = 
ORIGINATOR     = 

OBJECT_NAME    = STARLINK-37072
OBJECT_ID      = 2026-049M
CENTER_NAME    = EARTH
REF_FRAME      = TEME
TIME_SYSTEM    = UTC
MEAN_ELEMENT_THEORY = SGP/SGP4

EPOCH          = 2026-04-02T20:00:01.999008
MEAN_MOTION    = 15.75227530
ECCENTRICITY   = .0001371
INCLINATION    = 97.2855
RA_OF_ASC_NODE = 113.3030
ARG_OF_PERICENTER = 92.3993
MEAN_ANOMALY   = 172.1724

EPHEMERIS_TYPE = 0
CLASSIFICATION_TYPE = U
NORAD_CAT_ID   = 68153
ELEMENT_SET_NO = 999
REV_AT_EPOCH   = 450
BSTAR          = -.10299E-2
MEAN_MOTION_DOT = -.151313E-2
MEAN_MOTION_DDOT = 0

CCSDS_OMM_VERS = 2.0
CREATION_DATE  = 
ORIGINATOR     = 

OBJECT_NAME    = STARLINK-36241
OBJECT_ID      = 2026-049N
CENTER_NAME    = EARTH
REF_FRAME      = TEME
TIME_SYSTEM    = UTC
MEAN_ELEMENT_THEORY = SGP/SGP4

EPOCH          = 2026-04-02T19:10:07.260960
MEAN_MOTION    = 15.75265342
ECCENTRICITY   = .0001568
INCLINATION    = 97.2850
RA_OF_ASC_NODE = 113.2349
ARG_OF_PERICENTER = 91.6863
MEAN_ANOMALY   = 268.4582

EPHEMERIS_TYPE = 0
CLASSIFICATION_TYPE = U
NORAD_CAT_ID   = 68154
ELEMENT_SET_NO = 999
REV_AT_EPOCH   = 321
BSTAR          = .1199E-2
MEAN_MOTION_DOT = .183194E-2
MEAN_MOTION_DDOT = 0

